[{"OBJECT_NAME":"JILIN-1 GAOFEN 03D11","OBJECT_ID":"2022-019M","EPOCH":"2026-03-09T23:52:29.709120","MEAN_MOTION":15.77323019,"ECCENTRICITY":0.00036787,"INCLINATION":97.3731,"RA_OF_ASC_NODE":162.242,"ARG_OF_PERICENTER":171.3396,"MEAN_ANOMALY":188.7935,"EPHEMERIS_TYPE":0,"CLASSIFICATION_TYPE":"U","NORAD_CAT_ID":51835,"ELEMENT_SET_NO":999,"REV_AT_EPOCH":22451,"BSTAR":0.0012002727,"MEAN_MOTION_DOT":0.00201102,"MEAN_MOTION_DDOT":0},{"OBJECT_NAME":"STARLINK-36988","OBJECT_ID":"2026-039N","EPOCH":"2026-03-09T22:00:01.999584","MEAN_MOTION":15.841499,"ECCENTRICITY":0.00016799,"INCLINATION":42.9984,"RA_OF_ASC_NODE":53.4317,"ARG_OF_PERICENTER":255.3888,"MEAN_ANOMALY":48.8396,"EPHEMERIS_TYPE":0,"CLASSIFICATION_TYPE":"U","NORAD_CAT_ID":67998,"ELEMENT_SET_NO":999,"REV_AT_EPOCH":291,"BSTAR":-0.0077038481,"MEAN_MOTION_DOT":-0.01574957,"MEAN_MOTION_DDOT":0}]
